1  3338U 68066B   20281.39852331 -.00000045  00000-0 -49814-4 0  9991
2  3338  80.6629 235.5060 1131046 235.2091 113.7431 12.22874123324189
1  3338U 68066B   20281.88942703 -.00000038 +00000-0 -42347-4 0  9994
2  3338 080.6629 235.1310 1131048 234.2036 114.8724 12.22874077324256
1  3338U 68066B   20282.38033160 -.00000024 +00000-0 -27472-4 0  9995
2  3338 080.6630 234.7560 1131058 233.1982 116.0054 12.22874056324313
1  3338U 68066B   20282.87123712 -.00000018 +00000-0 -21255-4 0  9998
2  3338 080.6631 234.3810 1131064 232.1927 117.1424 12.22874011324373
1  3338U 68066B   20283.36214339 -.00000008 +00000-0 -10454-4 0  9997
2  3338 080.6632 234.0060 1131077 231.1874 118.2829 12.22874014324433
1  3338U 68066B   20283.60759690 -.00000009  00000-0 -11529-4 0  9993
2  3338  80.6632 233.8185 1131084 230.6846 118.8548 12.22873979324454
1  3338U 68066B   20284.26213996 -.00000044 +00000-0 -49904-4 0  9997
2  3338 080.6626 233.3189 1131156 229.3459 120.3814 12.22873901324540
1  3338U 68066B   20284.91668513 -.00000042 +00000-0 -47859-4 0  9993
2  3338 080.6627 232.8189 1131173 228.0055 121.9172 12.22873862324621
1  3338U 68066B   20285.32577690 -.00000035 +00000-0 -40077-4 0  9991
2  3338 080.6634 232.5060 1131127 227.1662 122.8827 12.22873899324679
1  3338U 68066B   20285.81668735 -.00000048  00000-0 -53934-4 0  9996
2  3338  80.6635 232.1311 1131140 226.1610 124.0418 12.22873865324721
1  3338U 68066B   20285.89850584 -.00000051 +00000-0 -57785-4 0  9991
2  3338 080.6635 232.0686 1131141 225.9934 124.2354 12.22873850324749
1  3338U 68066B   20286.38941735 -.00000066 +00000-0 -74032-4 0  9995
2  3338 080.6636 231.6936 1131156 224.9885 125.3983 12.22873742324800
1  3338U 68066B   20286.88032968 -.00000073 +00000-0 -81903-4 0  9992
2  3338 080.6636 231.3186 1131169 223.9832 126.5652 12.22873683324865
1  3338U 68066B   20287.53488086 -.00000075 +00000-0 -83418-4 0  9996
2  3338 080.6637 230.8187 1131190 222.6431 128.1263 12.22873563324937
1  3338U 68066B   20287.86215698 -.00000073 +00000-0 -82235-4 0  9993
2  3338 080.6637 230.5688 1131199 221.9729 128.9093 12.22873527324985
1  3338U 68066B   20288.59852970 -.00000063 +00000-0 -71694-4 0  9990
2  3338 080.6638 230.0064 1131221 220.4650 130.6763 12.22873393325078
1  3338U 68066B   20288.84398763 -.00000062 +00000-0 -70462-4 0  9994
2  3338 080.6638 229.8189 1131231 219.9625 131.2668 12.22873368325105
1  3338U 68066B   20289.33490406 -.00000051 +00000-0 -58424-4 0  9998
2  3338 080.6639 229.4440 1131249 218.9574 132.4506 12.22873333325165
1  3338U 68066B   20289.90764085 -.00000049 +00000-0 -56676-4 0  9992
2  3338 080.6639 229.0066 1131268 217.7847 133.8357 12.22873266325238
1  3338U 68066B   20290.31673909 -.00000045 +00000-0 -51874-4 0  9994
2  3338 080.6639 228.6942 1131286 216.9472 134.8276 12.22873258325288
1  3338U 68066B   20290.88947748 -.00000050 +00000-0 -57552-4 0  9996
2  3338 080.6640 228.2568 1131307 215.7747 136.2199 12.22873213325355
1  3338U 68066B   20291.13493706 -.00000052  00000-0 -60679-4 0  9991
2  3338  80.6640 228.0693 1131321 215.2724 136.8175 12.22873173325375
1  3338U 68066B   20291.21675693 -.00000050 +00000-0 -57892-4 0  9998
2  3338 080.6640 228.0068 1131327 215.1049 137.0170 12.22873198325393
1  3338U 68066B   20291.87131685 -.00000061 +00000-0 -69630-4 0  9993
2  3338 080.6640 227.5069 1131353 213.7651 138.6157 12.22873131325478
1  3338U 68066B   20292.52587807 -.00000036 +00000-0 -43603-4 0  9991
2  3338 080.6637 227.0074 1131399 212.4270 140.2173 12.22873147325551
1  3338U 68066B   20292.85315911 -.00000035 +00000-0 -42526-4 0  9994
2  3338 080.6637 226.7575 1131408 211.7571 141.0212 12.22873127325595
1  3338U 68066B   20293.18044044 -.00000049  00000-0 -57760-4 0  9998
2  3338  80.6642 226.5072 1131407 211.0858 141.8280 12.22873020325620
1  3338U 68066B   20293.26226084 -.00000049 +00000-0 -57303-4 0  9996
2  3338 080.6642 226.4447 1131411 210.9183 142.0295 12.22873007325645
1  3338U 68066B   20293.34408126 -.00000049 +00000-0 -57543-4 0  9990
2  3338 080.6643 226.3822 1131414 210.7508 142.2310 12.22872989325642
1  3338U 68066B   20294.40774792 -.00000039 +00000-0 -46767-4 0  9998
2  3338 080.6638 225.5703 1131468 208.5758 144.8550 12.22872939325780
1  3338U 68066B   20294.89867203 -.00000038 +00000-0 -46208-4 0  9990
2  3338 080.6639 225.1954 1131483 207.5709 146.0716 12.22872897325834
1  3338U 68066B   20295.22595510 -.00000036 +00000-0 -44352-4 0  9993
2  3338 080.6639 224.9455 1131495 206.9009 146.8840 12.22872879325887
1  3338U 68066B   20296.28962670 -.00000033 +00000-0 -41925-4 0  9995
2  3338 080.6641 224.1333 1131534 204.7239 149.5312 12.22872816326002
1  3338U 68066B   20296.86237442 -.00000008 +00000-0 -14906-4 0  9992
2  3338 080.6647 223.6956 1131557 203.5491 150.9642 12.22872776326080
1  3338U 68066B   20297.35330106 -.00000020 +00000-0 -27783-4 0  9999
2  3338 080.6647 223.3207 1131579 202.5447 152.1918 12.22872757326146
1  3338U 68066B   20298.25333453 -.00000040 +00000-0 -49614-4 0  9996
2  3338 080.6647 222.6335 1131614 200.7031 154.4479 12.22872704326250
1  3338U 68066B   20298.90790532 -.00000051 +00000-0 -61155-4 0  9999
2  3338 080.6648 222.1337 1131638 199.3637 156.0929 12.22872657326333
1  3338U 68066B   20299.31701252 -.00000048  00000-0 -58381-4 0  9999
2  3338  80.6648 221.8214 1131652 198.5266 157.1226 12.22872630326375
1  3338U 68066B   20299.88976312 -.00000042 +00000-0 -52717-4 0  9993
2  3338 080.6648 221.3841 1131671 197.3545 158.5665 12.22872590326450
1  3338U 68066B   20300.29887099 -.00000031 +00000-0 -40179-4 0  9991
2  3338 080.6649 221.0717 1131689 196.5176 159.5988 12.22872588326502
1  3338U 68066B   20300.87162252 -.00000023 +00000-0 -32473-4 0  9991
2  3338 080.6649 220.6344 1131710 195.3457 161.0461 12.22872531326576
1  3338U 68066B   20301.36255275 -.00000011  00000-0 -19916-4 0  9998
2  3338  80.6649 220.2596 1131729 194.3413 162.2882 12.22872519326624
1  3338U 68066B   20301.52619623 -.00000009 +00000-0 -17767-4 0  9996
2  3338 080.6649 220.1347 1131737 194.0066 162.7024 12.22872505326658
1  3338U 68066B   20301.85348325 -.00000008 +00000-0 -16206-4 0  9996
2  3338 080.6649 219.8849 1131748 193.3372 163.5313 12.22872503326696
1  3338U 68066B   20302.50805766 -.00000006 +00000-0 -15014-4 0  9990
2  3338 080.6649 219.3851 1131775 191.9982 165.1910 12.22872488326777
1  3338U 68066B   20303.24445431 -.00000020 +00000-0 -29811-4 0  9997
2  3338 080.6649 218.8229 1131804 190.4926 167.0596 12.22872447326861
1  3338U 68066B   20303.81720765 -.00000029 +00000-0 -40200-4 0  9990
2  3338 080.6649 218.3856 1131825 189.3213 168.5149 12.22872428326927
1  3338U 68066B   20304.22631740 -.00000032 +00000-0 -43287-4 0  9992
2  3338 080.6649 218.0733 1131841 188.4848 169.5550 12.22872394326985
1  3338U 68066B   20304.79907129 -.00000033 +00000-0 -44197-4 0  9993
2  3338 080.6649 217.6360 1131859 187.3132 171.0127 12.22872380327051
1  3338U 68066B   20305.20818140 -.00000021 +00000-0 -31864-4 0  9998
2  3338 080.6649 217.3237 1131874 186.4765 172.0543 12.22872381327100
1  3338U 68066B   20305.78093578 -.00000009 +00000-0 -19174-4 0  9997
2  3338 080.6649 216.8864 1131893 185.3049 173.5136 12.22872370327173
1  3338U 68066B   20306.27186828 +.00000011 +00000-0 +21334-5 0  9996
2  3338 080.6649 216.5116 1131910 184.3006 174.7650 12.22872379327232
1  3338U 68066B   20306.84462298 +.00000029 +00000-0 +21344-4 0  9996
2  3338 080.6649 216.0744 1131930 183.1289 176.2257 12.22872389327305
1  3338U 68066B   20307.49919986 +.00000048 +00000-0 +41657-4 0  9999
2  3338 080.6649 215.5747 1131957 181.7901 177.8950 12.22872409327384
1  3338U 68066B   20307.82648828 +.00000050 +00000-0 +43268-4 0  9993
2  3338 080.6649 215.3248 1131968 181.1206 178.7299 12.22872422327428
1  3338U 68066B   20308.23559883 +.00000050 +00000-0 +43059-4 0  9999
2  3338 080.6649 215.0125 1131984 180.2840 179.7734 12.22872421327470
1  3338U 68066B   20308.48106511  .00000049  00000-0  42124-4 0  9992
2  3338  80.6649 214.8251 1131992 179.7819 180.3995 12.22872433327497
1  3338U 68066B   20308.80835352 +.00000044 +00000-0 +36256-4 0  9994
2  3338 080.6649 214.5753 1132003 179.1122 181.2348 12.22872445327547
1  3338U 68066B   20309.29928603 +.00000036 +00000-0 +27420-4 0  9994
2  3338 080.6648 214.2005 1132016 178.1080 182.4872 12.22872468327606
1  3338U 68066B   20309.87204049 +.00000023 +00000-0 +13744-4 0  9999
2  3338 080.6649 213.7633 1132035 176.9370 183.9473 12.22872488327679
1  3338U 68066B   20310.44479492 +.00000013 +00000-0 +32246-5 0  9998
2  3338 080.6648 213.3261 1132051 175.7657 185.4075 12.22872496327746
1  3338U 68066B   20310.77208311  .00000010  00000-0 -40640-6 0  9990
2  3338  80.6648 213.0762 1132061 175.0964 186.2416 12.22872512327774
1  3338U 68066B   20310.85390513 +.00000009 +00000-0 -99124-6 0  9994
2  3338 080.6648 213.0138 1132063 174.9292 186.4499 12.22872510327798
1  3338U 68066B   20311.42665936 +.00000016 +00000-0 +61018-5 0  9999
2  3338 080.6649 212.5765 1132080 173.7582 187.9086 12.22872534327869
1  3338U 68066B   20311.83576945 +.00000018 +00000-0 +74538-5 0  9998
2  3338 080.6648 212.2643 1132090 172.9215 188.9504 12.22872541327915
1  3338U 68066B   20312.24487944 +.00000025 +00000-0 +14981-4 0  9997
2  3338 080.6648 211.9520 1132099 172.0850 189.9914 12.22872550327961
1  3338U 68066B   20312.73581124 +.00000032 +00000-0 +22709-4 0  9991
2  3338 080.6648 211.5772 1132112 171.0811 191.2401 12.22872571328026
1  3338U 68066B   20316.09050477 +.00000009 +00000+0 -31140-5 0  9990
2  3338  80.6644 209.0165 1132187 164.2221 199.7431 12.22872685328438
1  3338U 68066B   20316.66325591 +.00000005 +00000+0 -80654-5 0  9995
2  3338  80.6643 208.5793 1132195 163.0510 201.1887 12.22872694328506
1  3338U 68066B   20317.39964962 +.00000015 +00000+0 +29422-5 0  9993
2  3338  80.6642 208.0172 1132208 161.5451 203.0444 12.22872690328598
1  3338U 68066B   20318.21786377 +.00000035 +00000-0 +23499-4 0  9997
2  3338 080.6641 207.3927 1132218 159.8728 205.1004 12.22872716328690
